G90
G21
G17
G0 Z3.0

; Werkzeug ein
M3 S8000

; ============================
; SCHNITT 1 — Z = -0.5
; ============================
G0 X0 Y0
G1 Z-0.5 F150
G1 F300

; Rasterbahnen
G1 X100.4 Y0.0
G1 Y1.5
G1 X0.0 Y1.5
G1 Y3.0
G1 X100.4 Y3.0
G1 Y4.5
G1 X0.0 Y4.5
G1 Y6.0
G1 X100.4 Y6.0
G1 Y7.5
G1 X0.0 Y7.5
G1 Y9.0
G1 X100.4 Y9.0
G1 Y10.5
G1 X0.0 Y10.5
G1 Y12.0
G1 X100.4 Y12.0
G1 Y13.5
G1 X0.0 Y13.5
G1 Y15.0
G1 X100.4 Y15.0
G1 Y16.5
G1 X0.0 Y16.5
G1 Y18.0
G1 X100.4 Y18.0
G1 Y19.5
G1 X0.0 Y19.5
G1 Y21.0
G1 X100.4 Y21.0
G1 Y22.5
G1 X0.0 Y22.5
G1 Y24.0
G1 X100.4 Y24.0
G1 Y25.5
G1 X0.0 Y25.5
G1 Y27.0
G1 X100.4 Y27.0
G1 Y28.5
G1 X0.0 Y28.5
G1 Y30.0
G1 X100.4 Y30.0
G1 Y31.5
G1 X0.0 Y31.5
G1 Y33.0
G1 X100.4 Y33.0
G1 Y34.5
G1 X0.0 Y34.5
G1 Y36.0
G1 X100.4 Y36.0
G1 Y37.5
G1 X0.0 Y37.5
G1 Y39.0
G1 X100.4 Y39.0
G1 Y40.5
G1 X0.0 Y40.5
G1 Y42.0
G1 X100.4 Y42.0
G1 Y43.5
G1 X0.0 Y43.5
G1 Y45.0
G1 X100.4 Y45.0
G1 Y46.5
G1 X0.0 Y46.5
G1 Y48.0
G1 X100.4 Y48.0
G1 Y49.5
G1 X0.0 Y49.5
G1 Y51.0
G1 X100.4 Y51.0
G1 Y52.5
G1 X0.0 Y52.5
G1 Y54.0
G1 X100.4 Y54.0
G1 Y55.5
G1 X0.0 Y55.5
G1 Y57.0
G1 X100.4 Y57.0
G1 Y58.5
G1 X0.0 Y58.5
G1 Y60.0
G1 X100.4 Y60.0
G1 Y61.5
G1 X0.0 Y61.5
G1 Y63.0
G1 X100.4 Y63.0
G1 Y64.5
G1 X0.0 Y64.5
G1 Y66.0
G1 X100.4 Y66.0
G1 Y67.5
G1 X0.0 Y67.5
G1 Y69.0
G1 X100.4 Y69.0
G1 Y70.4
G1 X0.0 Y70.4

G0 Z3.0

; ============================
; SCHNITT 2 — Z = -1.0
; ============================
G0 X0 Y0
G1 Z-1.0 F150
G1 F300

; Raster wiederholen
G1 X100.4 Y0.0
G1 Y1.5
G1 X0.0 Y1.5
G1 Y3.0
G1 X100.4 Y3.0
; (identisches Raster wie oben)
G1 Y4.5
G1 X0.0 Y4.5
G1 Y6.0
G1 X100.4 Y6.0
G1 Y7.5
G1 X0.0 Y7.5
G1 Y9.0
G1 X100.4 Y9.0
G1 Y10.5
G1 X0.0 Y10.5
G1 Y12.0
G1 X100.4 Y12.0
G1 Y13.5
G1 X0.0 Y13.5
G1 Y15.0
G1 X100.4 Y15.0
G1 Y16.5
G1 X0.0 Y16.5
G1 Y18.0
G1 X100.4 Y18.0
G1 Y19.5
G1 X0.0 Y19.5
G1 Y21.0
G1 X100.4 Y21.0
G1 Y22.5
G1 X0.0 Y22.5
G1 Y24.0
G1 X100.4 Y24.0
G1 Y25.5
G1 X0.0 Y25.5
G1 Y27.0
G1 X100.4 Y27.0
G1 Y28.5
G1 X0.0 Y28.5
G1 Y30.0
G1 X100.4 Y30.0
G1 Y31.5
G1 X0.0 Y31.5
G1 Y33.0
G1 X100.4 Y33.0
G1 Y34.5
G1 X0.0 Y34.5
G1 Y36.0
G1 X100.4 Y36.0
G1 Y37.5
G1 X0.0 Y37.5
G1 Y39.0
G1 X100.4 Y39.0
G1 Y40.5
G1 X0.0 Y40.5
G1 Y42.0
G1 X100.4 Y42.0
G1 Y43.5
G1 X0.0 Y43.5
G1 Y45.0
G1 X100.4 Y45.0
G1 Y46.5
G1 X0.0 Y46.5
G1 Y48.0
G1 X100.4 Y48.0
G1 Y49.5
G1 X0.0 Y49.5
G1 Y51.0
G1 X100.4 Y51.0
G1 Y52.5
G1 X0.0 Y52.5
G1 Y54.0
G1 X100.4 Y54.0
G1 Y55.5
G1 X0.0 Y55.5
G1 Y57.0
G1 X100.4 Y57.0
G1 Y58.5
G1 X0.0 Y58.5
G1 Y60.0
G1 X100.4 Y60.0
G1 Y61.5
G1 X0.0 Y61.5
G1 Y63.0
G1 X100.4 Y63.0
G1 Y64.5
G1 X0.0 Y64.5
G1 Y66.0
G1 X100.4 Y66.0
G1 Y67.5
G1 X0.0 Y67.5
G1 Y69.0
G1 X100.4 Y69.0
G1 Y70.4
G1 X0.0 Y70.4

G0 Z3.0

; ============================
; SCHNITT 3 — Z = -1.5
; ============================
G0 X0 Y0
G1 Z-1.5 F150
G1 F300

; Raster drittes Mal
G1 X100.4 Y0.0
G1 Y1.5
G1 X0.0 Y1.5
; (gleiche Sequenz)
G1 Y3.0
G1 X100.4 Y3.0
G1 Y4.5
G1 X0.0 Y4.5
; (... bis ...)
G1 Y69.0
G1 X100.4 Y69.0
G1 Y70.4
G1 X0.0 Y70.4

G0 Z3.0

M5
G0 X0 Y0
