( pcb2gcode 2.4.0 )
( Software-independent Gcode )

( This file uses only one drill bit. Forced by 'onedrill' option )

G94       (Millimeters per minute feed rate.)
G21       (Units == Millimeters.)
G91.1     (Incremental arc distance mode.)
G90       (Absolute coordinates.)
G00 S10000     (RPM spindle speed.)

G00 Z5.00000 (Retract)
T1
M5      (Spindle stop.)
G04 P1.00000
(MSG, Change tool bit to drill size 1mm)
M6      (Tool change.)
M0      (Temporary machine stop.)
M3      (Spindle on clockwise.)
G0 Z2.00000
G04 P1.00000

G1 F100.00000
G0 X16.77300 Y16.26500
G1 Z-1.70000
G1 Z2.00000
G0 X24.39300 Y16.26500
G1 Z-1.70000
G1 Z2.00000
G0 X20.32900 Y6.10500
G1 Z-1.70000
G1 Z2.00000
G0 X22.86900 Y6.10500
G1 Z-1.70000
G1 Z2.00000

G00 Z5.000 ( All done -- retract )

M5      (Spindle off.)
G04 P1.000000
M9      (Coolant off.)
M2      (Program end.)

