( pcb2gcode 2.4.0 )
( Software-independent Gcode )

G94 ( Inches per minute feed rate. )
G20 ( Units == INCHES. )

G90 ( Absolute coordinates. )
G00 S12000 ( RPM spindle speed. )
G64 P0.00040 ( set maximum deviation from commanded toolpath )
G01 F7.87402 ( Feedrate. )


G00 Z0.19685 (Retract to tool change height)
T0
M5      (Spindle stop.)
G04 P1.00000 (Wait for spindle to stop)
(MSG, Change tool bit to mill diameter 0.01969in)
M6      (Tool change.)
M0      (Temporary machine stop.)
M3 ( Spindle on clockwise. )
G04 P1.00000 (Wait for spindle to get up to speed)
G04 P0 ( dwell for no time -- G64 should not smooth over this point )
G00 Z0.07874 ( retract )

G00 X0.16183 Y0.63933 ( rapid move to begin. )
G01 F3.93701
( Mill infeed pass 1/1 )
G01 Z-0.00394
G04 P0 ( dwell for no time -- G64 should not smooth over this point )
G01 F7.87402
G01 X0.16183 Y0.63933
G01 X0.16183 Y0.64138
G01 X0.16355 Y0.65775
G01 X0.16397 Y0.65977
G01 X0.16906 Y0.67542
G01 X0.16990 Y0.67730
G01 X0.17813 Y0.69156
G01 X0.17934 Y0.69322
G01 X0.19035 Y0.70546
G01 X0.19188 Y0.70683
G01 X0.20520 Y0.71651
G01 X0.20698 Y0.71754
G01 X0.22202 Y0.72423
G01 X0.22398 Y0.72487
G01 X0.24008 Y0.72829
G01 X0.24212 Y0.72851
G01 X0.25858 Y0.72851
G01 X0.26063 Y0.72829
G01 X0.27673 Y0.72487
G01 X0.27869 Y0.72423
G01 X0.29373 Y0.71754
G01 X0.29551 Y0.71651
G01 X0.30883 Y0.70683
G01 X0.31036 Y0.70546
G01 X0.32137 Y0.69322
G01 X0.32258 Y0.69156
G01 X0.32941 Y0.67973
G01 X0.64792 Y0.67973
G01 X0.65502 Y0.68131
G01 X0.65706 Y0.68152
G01 X0.66365 Y0.68152
G01 X0.66569 Y0.68131
G01 X0.67213 Y0.67994
G01 X0.67409 Y0.67930
G01 X0.68011 Y0.67662
G01 X0.68189 Y0.67559
G01 X0.68721 Y0.67172
G01 X0.68874 Y0.67035
G01 X0.69315 Y0.66545
G01 X0.69436 Y0.66379
G01 X0.69765 Y0.65809
G01 X0.69849 Y0.65621
G01 X0.70052 Y0.64994
G01 X0.70095 Y0.64793
G01 X0.70164 Y0.64138
G01 X0.70164 Y0.63933
G01 X0.70095 Y0.63278
G01 X0.70052 Y0.63077
G01 X0.69849 Y0.62450
G01 X0.69765 Y0.62262
G01 X0.69436 Y0.61692
G01 X0.69315 Y0.61526
G01 X0.68874 Y0.61036
G01 X0.68721 Y0.60899
G01 X0.68189 Y0.60512
G01 X0.68011 Y0.60409
G01 X0.67409 Y0.60141
G01 X0.67213 Y0.60077
G01 X0.66569 Y0.59940
G01 X0.66365 Y0.59919
G01 X0.65706 Y0.59919
G01 X0.65502 Y0.59940
G01 X0.64792 Y0.60098
G01 X0.32941 Y0.60098
G01 X0.32258 Y0.58915
G01 X0.32137 Y0.58749
G01 X0.31036 Y0.57525
G01 X0.30883 Y0.57388
G01 X0.29551 Y0.56420
G01 X0.29373 Y0.56317
G01 X0.27869 Y0.55648
G01 X0.27673 Y0.55584
G01 X0.26063 Y0.55242
G01 X0.25858 Y0.55220
G01 X0.24212 Y0.55220
G01 X0.24008 Y0.55242
G01 X0.22398 Y0.55584
G01 X0.22202 Y0.55648
G01 X0.20698 Y0.56317
G01 X0.20520 Y0.56420
G01 X0.19188 Y0.57388
G01 X0.19035 Y0.57525
G01 X0.17934 Y0.58749
G01 X0.17813 Y0.58915
G01 X0.16990 Y0.60341
G01 X0.16906 Y0.60529
G01 X0.16397 Y0.62094
G01 X0.16355 Y0.62296
G01 X0.16183 Y0.63933
G04 P0 ( dwell for no time -- G64 should not smooth over this point )
G00 Z0.07874 ( retract )

G00 X0.16183 Y0.23933 ( rapid move to begin. )
G01 F3.93701
( Mill infeed pass 1/1 )
G01 Z-0.00394
G04 P0 ( dwell for no time -- G64 should not smooth over this point )
G01 F7.87402
G01 X0.16183 Y0.23933
G01 X0.16183 Y0.24138
G01 X0.16355 Y0.25775
G01 X0.16397 Y0.25977
G01 X0.16906 Y0.27542
G01 X0.16990 Y0.27730
G01 X0.17813 Y0.29156
G01 X0.17934 Y0.29322
G01 X0.19035 Y0.30546
G01 X0.19188 Y0.30683
G01 X0.20520 Y0.31651
G01 X0.20698 Y0.31754
G01 X0.22202 Y0.32423
G01 X0.22398 Y0.32487
G01 X0.24008 Y0.32829
G01 X0.24212 Y0.32851
G01 X0.25858 Y0.32851
G01 X0.26063 Y0.32829
G01 X0.27673 Y0.32487
G01 X0.27869 Y0.32423
G01 X0.29373 Y0.31754
G01 X0.29551 Y0.31651
G01 X0.30883 Y0.30683
G01 X0.31036 Y0.30546
G01 X0.32137 Y0.29322
G01 X0.32258 Y0.29156
G01 X0.32941 Y0.27973
G01 X0.75592 Y0.27973
G01 X0.75674 Y0.28126
G01 X0.75796 Y0.28275
G01 X0.75945 Y0.28397
G01 X0.76115 Y0.28488
G01 X0.76300 Y0.28544
G01 X0.76492 Y0.28563
G01 X0.83579 Y0.28563
G01 X0.83771 Y0.28544
G01 X0.83955 Y0.28488
G01 X0.84126 Y0.28397
G01 X0.84275 Y0.28275
G01 X0.84397 Y0.28126
G01 X0.84488 Y0.27955
G01 X0.84544 Y0.27771
G01 X0.84563 Y0.27579
G01 X0.84563 Y0.20492
G01 X0.84544 Y0.20300
G01 X0.84488 Y0.20116
G01 X0.84397 Y0.19945
G01 X0.84275 Y0.19796
G01 X0.84126 Y0.19674
G01 X0.83955 Y0.19583
G01 X0.83771 Y0.19527
G01 X0.83579 Y0.19508
G01 X0.76492 Y0.19508
G01 X0.76300 Y0.19527
G01 X0.76115 Y0.19583
G01 X0.75945 Y0.19674
G01 X0.75796 Y0.19796
G01 X0.75674 Y0.19945
G01 X0.75592 Y0.20098
G01 X0.32941 Y0.20098
G01 X0.32258 Y0.18915
G01 X0.32137 Y0.18749
G01 X0.31036 Y0.17525
G01 X0.30883 Y0.17388
G01 X0.29551 Y0.16420
G01 X0.29373 Y0.16317
G01 X0.27869 Y0.15648
G01 X0.27673 Y0.15584
G01 X0.26063 Y0.15242
G01 X0.25858 Y0.15220
G01 X0.24212 Y0.15220
G01 X0.24008 Y0.15242
G01 X0.22398 Y0.15584
G01 X0.22202 Y0.15648
G01 X0.20698 Y0.16317
G01 X0.20520 Y0.16420
G01 X0.19188 Y0.17388
G01 X0.19035 Y0.17525
G01 X0.17934 Y0.18749
G01 X0.17813 Y0.18915
G01 X0.16990 Y0.20341
G01 X0.16906 Y0.20529
G01 X0.16397 Y0.22094
G01 X0.16355 Y0.22296
G01 X0.16183 Y0.23933
G04 P0 ( dwell for no time -- G64 should not smooth over this point )
G00 Z0.07874 ( retract )

G00 X0.85513 Y0.23933 ( rapid move to begin. )
G01 F3.93701
( Mill infeed pass 1/1 )
G01 Z-0.00394
G04 P0 ( dwell for no time -- G64 should not smooth over this point )
G01 F7.87402
G01 X0.85513 Y0.23933
G01 X0.85513 Y0.24138
G01 X0.85591 Y0.24875
G01 X0.85633 Y0.25076
G01 X0.85862 Y0.25781
G01 X0.85946 Y0.25969
G01 X0.86316 Y0.26610
G01 X0.86437 Y0.26777
G01 X0.86933 Y0.27327
G01 X0.87086 Y0.27465
G01 X0.87685 Y0.27900
G01 X0.87863 Y0.28003
G01 X0.88540 Y0.28305
G01 X0.88818 Y0.28386
G01 X0.92098 Y0.31666
G01 X0.92098 Y0.62831
G01 X0.92019 Y0.63077
G01 X0.91976 Y0.63278
G01 X0.91907 Y0.63933
G01 X0.91907 Y0.64138
G01 X0.91976 Y0.64793
G01 X0.92019 Y0.64994
G01 X0.92222 Y0.65621
G01 X0.92306 Y0.65809
G01 X0.92635 Y0.66379
G01 X0.92756 Y0.66545
G01 X0.93196 Y0.67035
G01 X0.93349 Y0.67172
G01 X0.93882 Y0.67559
G01 X0.94060 Y0.67662
G01 X0.94662 Y0.67930
G01 X0.94857 Y0.67994
G01 X0.95502 Y0.68131
G01 X0.95706 Y0.68152
G01 X0.96365 Y0.68152
G01 X0.96569 Y0.68131
G01 X0.97213 Y0.67994
G01 X0.97409 Y0.67930
G01 X0.98011 Y0.67662
G01 X0.98189 Y0.67559
G01 X0.98721 Y0.67172
G01 X0.98874 Y0.67035
G01 X0.99315 Y0.66545
G01 X0.99436 Y0.66379
G01 X0.99765 Y0.65809
G01 X0.99849 Y0.65621
G01 X1.00052 Y0.64994
G01 X1.00095 Y0.64793
G01 X1.00164 Y0.64138
G01 X1.00164 Y0.63933
G01 X1.00095 Y0.63278
G01 X1.00052 Y0.63077
G01 X0.99972 Y0.62831
G01 X0.99972 Y0.30035
G01 X0.99911 Y0.29363
G01 X0.99873 Y0.29174
G01 X0.99705 Y0.28620
G01 X0.99631 Y0.28442
G01 X0.99359 Y0.27931
G01 X0.99251 Y0.27771
G01 X0.98819 Y0.27252
G01 X0.94370 Y0.22803
G01 X0.94211 Y0.22298
G01 X0.94125 Y0.22102
G01 X0.93754 Y0.21461
G01 X0.93633 Y0.21294
G01 X0.93138 Y0.20744
G01 X0.92985 Y0.20606
G01 X0.92386 Y0.20171
G01 X0.92207 Y0.20068
G01 X0.91531 Y0.19766
G01 X0.91335 Y0.19703
G01 X0.90610 Y0.19549
G01 X0.90406 Y0.19527
G01 X0.89665 Y0.19527
G01 X0.89460 Y0.19549
G01 X0.88736 Y0.19703
G01 X0.88540 Y0.19766
G01 X0.87863 Y0.20068
G01 X0.87685 Y0.20171
G01 X0.87086 Y0.20606
G01 X0.86933 Y0.20744
G01 X0.86437 Y0.21294
G01 X0.86316 Y0.21461
G01 X0.85946 Y0.22102
G01 X0.85862 Y0.22290
G01 X0.85633 Y0.22995
G01 X0.85591 Y0.23196
G01 X0.85513 Y0.23933

G04 P0 ( dwell for no time -- G64 should not smooth over this point )
G00 Z0.196850 ( retract )

M5 ( Spindle off. )
G04 P1.000000
M9 ( Coolant off. )
M2 ( Program end. )

