( pcb2gcode 2.4.0 )
( Software-independent Gcode )

G94 ( Inches per minute feed rate. )
G20 ( Units == INCHES. )

G90 ( Absolute coordinates. )
G00 S15000 ( RPM spindle speed. )
G64 P0.00040 ( set maximum deviation from commanded toolpath )
G01 F7.87402 ( Feedrate. )


G00 Z0.19685 (Retract to tool change height)
T0
M5      (Spindle stop.)
G04 P1.00000 (Wait for spindle to stop)
(MSG, Change tool bit to cutter diameter 0.03937in)
M6      (Tool change.)
M0      (Temporary machine stop.)
M3 ( Spindle on clockwise. )
G04 P1.00000 (Wait for spindle to get up to speed)
G04 P0 ( dwell for no time -- G64 should not smooth over this point )
G00 Z0.07874 ( retract )

G00 X0.02067 Y0.04035 ( rapid move to begin. )
G01 Z-0.01575 F3.93701 ( plunge. )
G04 P0 ( dwell for no time -- G64 should not smooth over this point )
G01 F7.87402
G01 X0.02067 Y0.84035
G01 X0.02105 Y0.84420
G01 X0.02217 Y0.84789
G01 X0.02399 Y0.85129
G01 X0.02643 Y0.85427
G01 X0.02942 Y0.85672
G01 X0.03282 Y0.85854
G01 X0.03651 Y0.85966
G01 X0.04035 Y0.86004
G01 X1.24035 Y0.86004
G01 X1.24419 Y0.85966
G01 X1.24789 Y0.85854
G01 X1.25129 Y0.85672
G01 X1.25427 Y0.85427
G01 X1.25672 Y0.85129
G01 X1.25854 Y0.84789
G01 X1.25966 Y0.84420
G01 X1.26004 Y0.84035
G01 X1.26004 Y0.04035
G01 X1.25966 Y0.03651
G01 X1.25854 Y0.03282
G01 X1.25672 Y0.02942
G01 X1.25427 Y0.02644
G01 X1.25129 Y0.02399
G01 X1.24789 Y0.02217
G01 X1.24419 Y0.02105
G01 X1.24035 Y0.02067
G01 X0.04035 Y0.02067
G01 X0.03651 Y0.02105
G01 X0.03282 Y0.02217
G01 X0.02942 Y0.02399
G01 X0.02643 Y0.02644
G01 X0.02399 Y0.02942
G01 X0.02217 Y0.03282
G01 X0.02105 Y0.03651
G01 X0.02067 Y0.04035
G01 Z-0.03150 F3.93701 ( plunge. )
G04 P0 ( dwell for no time -- G64 should not smooth over this point )
G01 F7.87402
G01 X0.02067 Y0.84035
G01 X0.02105 Y0.84420
G01 X0.02217 Y0.84789
G01 X0.02399 Y0.85129
G01 X0.02643 Y0.85427
G01 X0.02942 Y0.85672
G01 X0.03282 Y0.85854
G01 X0.03651 Y0.85966
G01 X0.04035 Y0.86004
G01 X1.24035 Y0.86004
G01 X1.24419 Y0.85966
G01 X1.24789 Y0.85854
G01 X1.25129 Y0.85672
G01 X1.25427 Y0.85427
G01 X1.25672 Y0.85129
G01 X1.25854 Y0.84789
G01 X1.25966 Y0.84420
G01 X1.26004 Y0.84035
G01 X1.26004 Y0.04035
G01 X1.25966 Y0.03651
G01 X1.25854 Y0.03282
G01 X1.25672 Y0.02942
G01 X1.25427 Y0.02644
G01 X1.25129 Y0.02399
G01 X1.24789 Y0.02217
G01 X1.24419 Y0.02105
G01 X1.24035 Y0.02067
G01 X0.04035 Y0.02067
G01 X0.03651 Y0.02105
G01 X0.03282 Y0.02217
G01 X0.02942 Y0.02399
G01 X0.02643 Y0.02644
G01 X0.02399 Y0.02942
G01 X0.02217 Y0.03282
G01 X0.02105 Y0.03651
G01 X0.02067 Y0.04035
G01 Z-0.04724 F3.93701 ( plunge. )
G04 P0 ( dwell for no time -- G64 should not smooth over this point )
G01 F7.87402
G01 X0.02067 Y0.84035
G01 X0.02105 Y0.84420
G01 X0.02217 Y0.84789
G01 X0.02399 Y0.85129
G01 X0.02643 Y0.85427
G01 X0.02942 Y0.85672
G01 X0.03282 Y0.85854
G01 X0.03651 Y0.85966
G01 X0.04035 Y0.86004
G01 X1.24035 Y0.86004
G01 X1.24419 Y0.85966
G01 X1.24789 Y0.85854
G01 X1.25129 Y0.85672
G01 X1.25427 Y0.85427
G01 X1.25672 Y0.85129
G01 X1.25854 Y0.84789
G01 X1.25966 Y0.84420
G01 X1.26004 Y0.84035
G01 X1.26004 Y0.04035
G01 X1.25966 Y0.03651
G01 X1.25854 Y0.03282
G01 X1.25672 Y0.02942
G01 X1.25427 Y0.02644
G01 X1.25129 Y0.02399
G01 X1.24789 Y0.02217
G01 X1.24419 Y0.02105
G01 X1.24035 Y0.02067
G01 X0.04035 Y0.02067
G01 X0.03651 Y0.02105
G01 X0.03282 Y0.02217
G01 X0.02942 Y0.02399
G01 X0.02643 Y0.02644
G01 X0.02399 Y0.02942
G01 X0.02217 Y0.03282
G01 X0.02105 Y0.03651
G01 X0.02067 Y0.04035
G01 Z-0.06299 F3.93701 ( plunge. )
G04 P0 ( dwell for no time -- G64 should not smooth over this point )
G01 F7.87402
G01 X0.02067 Y0.84035
G01 X0.02105 Y0.84420
G01 X0.02217 Y0.84789
G01 X0.02399 Y0.85129
G01 X0.02643 Y0.85427
G01 X0.02942 Y0.85672
G01 X0.03282 Y0.85854
G01 X0.03651 Y0.85966
G01 X0.04035 Y0.86004
G01 X1.24035 Y0.86004
G01 X1.24419 Y0.85966
G01 X1.24789 Y0.85854
G01 X1.25129 Y0.85672
G01 X1.25427 Y0.85427
G01 X1.25672 Y0.85129
G01 X1.25854 Y0.84789
G01 X1.25966 Y0.84420
G01 X1.26004 Y0.84035
G01 X1.26004 Y0.04035
G01 X1.25966 Y0.03651
G01 X1.25854 Y0.03282
G01 X1.25672 Y0.02942
G01 X1.25427 Y0.02644
G01 X1.25129 Y0.02399
G01 X1.24789 Y0.02217
G01 X1.24419 Y0.02105
G01 X1.24035 Y0.02067
G01 X0.04035 Y0.02067
G01 X0.03651 Y0.02105
G01 X0.03282 Y0.02217
G01 X0.02942 Y0.02399
G01 X0.02643 Y0.02644
G01 X0.02399 Y0.02942
G01 X0.02217 Y0.03282
G01 X0.02105 Y0.03651
G01 X0.02067 Y0.04035

G04 P0 ( dwell for no time -- G64 should not smooth over this point )
G00 Z0.196850 ( retract )

M5 ( Spindle off. )
G04 P1.000000
M9 ( Coolant off. )
M2 ( Program end. )

