(Block-name: Header)
(Block-expand: 1)
(Block-enable: 1)
( pcb2gcode 2.4.0 )
( Software-independent Gcode )

( This file uses only one drill bit. Forced by 'onedrill' option )

G94       (Millimeters per minute feed rate.)
G21       (Units == Millimeters.)
G91.1     (Incremental arc distance mode.)
G90       (Absolute coordinates.)
(Block-name: block)
(Block-expand: 1)
(Block-enable: 1)
G00 S10000     (RPM spindle speed.)

G00 Z5.00000 (Retract)
T1
M5      (Spindle stop.)
G04 P1.00000
M3      (Spindle on clockwise.)
G0 Z2.00000
G04 P1.00000

G1 F100.00000
G0 X-73.52500 Y4.77500
G1 Z-1.70000
G1 Z2.00000
G0 X-73.52500 Y12.39500
G1 Z-1.70000
G1 Z2.00000
G0 X-77.77500 Y12.39500
G1 Z-1.70000
G1 Z2.00000
G0 X-77.77500 Y4.77500
G1 Z-1.70000
G1 Z2.00000
G0 X-81.77500 Y4.77500
G1 Z-1.70000
G1 Z2.00000
G0 X-85.77500 Y4.77500
G1 Z-1.70000
G1 Z2.00000
G0 X-81.77500 Y12.39500
G1 Z-1.70000
G1 Z2.00000
G0 X-85.77500 Y12.39500
G1 Z-1.70000
G1 Z2.00000
G0 X-83.68500 Y18.02500
G1 Z-1.70000
G1 Z2.00000
G0 X-81.14500 Y18.02500
G1 Z-1.70000
G1 Z2.00000
G0 X-78.60500 Y18.02500
G1 Z-1.70000
G1 Z2.00000
G0 X-76.06500 Y18.02500
G1 Z-1.70000
G1 Z2.00000
G0 X-73.52500 Y18.02500
G1 Z-1.70000
G1 Z2.00000
G0 X-68.27500 Y18.02500
G1 Z-1.70000
G1 Z2.00000
G0 X-68.27500 Y15.48500
G1 Z-1.70000
G1 Z2.00000
G0 X-62.52500 Y18.05000
G1 Z-1.70000
G1 Z2.00000
G0 X-62.52500 Y15.51000
G1 Z-1.70000
G1 Z2.00000
G0 X-52.77500 Y5.02500
G1 Z-1.70000
G1 Z2.00000
G0 X-48.77500 Y5.02500
G1 Z-1.70000
G1 Z2.00000
G0 X-44.77500 Y5.02500
G1 Z-1.70000
G1 Z2.00000
G0 X-40.52500 Y5.02500
G1 Z-1.70000
G1 Z2.00000
G0 X-40.52500 Y12.64500
G1 Z-1.70000
G1 Z2.00000
G0 X-44.77500 Y12.64500
G1 Z-1.70000
G1 Z2.00000
G0 X-48.77500 Y12.64500
G1 Z-1.70000
G1 Z2.00000
G0 X-52.77500 Y12.64500
G1 Z-1.70000
G1 Z2.00000
G0 X-51.43500 Y18.02500
G1 Z-1.70000
G1 Z2.00000
G0 X-48.89500 Y18.02500
G1 Z-1.70000
G1 Z2.00000
G0 X-46.35500 Y18.02500
G1 Z-1.70000
G1 Z2.00000
G0 X-43.81500 Y18.02500
G1 Z-1.70000
G1 Z2.00000
G0 X-41.27500 Y18.02500
G1 Z-1.70000
G1 Z2.00000
G0 X-38.49500 Y23.40500
G1 Z-1.70000
G1 Z2.00000
G0 X-41.03500 Y23.40500
G1 Z-1.70000
G1 Z2.00000
G0 X-43.57500 Y23.40500
G1 Z-1.70000
G1 Z2.00000
G0 X-46.11500 Y23.40500
G1 Z-1.70000
G1 Z2.00000
G0 X-48.65500 Y23.40500
G1 Z-1.70000
G1 Z2.00000
G0 X-51.19500 Y23.40500
G1 Z-1.70000
G1 Z2.00000
G0 X-53.73500 Y23.40500
G1 Z-1.70000
G1 Z2.00000
G0 X-56.27500 Y23.40500
G1 Z-1.70000
G1 Z2.00000
G0 X-61.02500 Y26.02500
G1 Z-1.70000
G1 Z2.00000
G0 X-61.02500 Y28.52500
G1 Z-1.70000
G1 Z2.00000
G0 X-64.02500 Y25.98500
G1 Z-1.70000
G1 Z2.00000
G0 X-64.02500 Y28.52500
G1 Z-1.70000
G1 Z2.00000
G0 X-70.99500 Y23.40500
G1 Z-1.70000
G1 Z2.00000
G0 X-73.53500 Y23.40500
G1 Z-1.70000
G1 Z2.00000
G0 X-76.07500 Y23.40500
G1 Z-1.70000
G1 Z2.00000
G0 X-78.61500 Y23.40500
G1 Z-1.70000
G1 Z2.00000
G0 X-81.15500 Y23.40500
G1 Z-1.70000
G1 Z2.00000
G0 X-83.69500 Y23.40500
G1 Z-1.70000
G1 Z2.00000
G0 X-86.23500 Y23.40500
G1 Z-1.70000
G1 Z2.00000
G0 X-88.77500 Y23.40500
G1 Z-1.70000
G1 Z2.00000
G0 X-93.77500 Y25.52500
G1 Z-1.70000
G1 Z2.00000
G0 X-96.77500 Y28.05000
G1 Z-1.70000
G1 Z2.00000
G0 X-96.77500 Y25.51000
G1 Z-1.70000
G1 Z2.00000
G0 X-93.77500 Y28.02500
G1 Z-1.70000
G1 Z2.00000
G0 X-88.77500 Y31.02500
G1 Z-1.70000
G1 Z2.00000
G0 X-86.23500 Y31.02500
G1 Z-1.70000
G1 Z2.00000
G0 X-83.69500 Y31.02500
G1 Z-1.70000
G1 Z2.00000
G0 X-81.15500 Y31.02500
G1 Z-1.70000
G1 Z2.00000
G0 X-78.61500 Y31.02500
G1 Z-1.70000
G1 Z2.00000
G0 X-76.07500 Y31.02500
G1 Z-1.70000
G1 Z2.00000
G0 X-73.53500 Y31.02500
G1 Z-1.70000
G1 Z2.00000
G0 X-70.99500 Y31.02500
G1 Z-1.70000
G1 Z2.00000
G0 X-64.27500 Y36.52500
G1 Z-1.70000
G1 Z2.00000
G0 X-58.77500 Y36.52500
G1 Z-1.70000
G1 Z2.00000
G0 X-58.77500 Y39.06500
G1 Z-1.70000
G1 Z2.00000
G0 X-53.52500 Y36.52500
G1 Z-1.70000
G1 Z2.00000
G0 X-52.77500 Y41.90500
G1 Z-1.70000
G1 Z2.00000
G0 X-48.77500 Y41.90500
G1 Z-1.70000
G1 Z2.00000
G0 X-44.77500 Y41.90500
G1 Z-1.70000
G1 Z2.00000
G0 X-41.02500 Y41.90500
G1 Z-1.70000
G1 Z2.00000
G0 X-43.36500 Y36.52500
G1 Z-1.70000
G1 Z2.00000
G0 X-45.90500 Y36.52500
G1 Z-1.70000
G1 Z2.00000
G0 X-48.44500 Y36.52500
G1 Z-1.70000
G1 Z2.00000
G0 X-50.98500 Y36.52500
G1 Z-1.70000
G1 Z2.00000
G0 X-56.27500 Y31.02500
G1 Z-1.70000
G1 Z2.00000
G0 X-53.73500 Y31.02500
G1 Z-1.70000
G1 Z2.00000
G0 X-51.19500 Y31.02500
G1 Z-1.70000
G1 Z2.00000
G0 X-48.65500 Y31.02500
G1 Z-1.70000
G1 Z2.00000
G0 X-46.11500 Y31.02500
G1 Z-1.70000
G1 Z2.00000
G0 X-43.57500 Y31.02500
G1 Z-1.70000
G1 Z2.00000
G0 X-41.03500 Y31.02500
G1 Z-1.70000
G1 Z2.00000
G0 X-38.49500 Y31.02500
G1 Z-1.70000
G1 Z2.00000
G0 X-34.10500 Y36.02500
G1 Z-1.70000
G1 Z2.00000
G0 X-34.10500 Y38.56500
G1 Z-1.70000
G1 Z2.00000
G0 X-31.56500 Y38.56500
G1 Z-1.70000
G1 Z2.00000
G0 X-31.56500 Y36.02500
G1 Z-1.70000
G1 Z2.00000
G0 X-31.56500 Y31.77500
G1 Z-1.70000
G1 Z2.00000
G0 X-29.02500 Y31.77500
G1 Z-1.70000
G1 Z2.00000
G0 X-29.02500 Y36.02500
G1 Z-1.70000
G1 Z2.00000
G0 X-29.02500 Y38.56500
G1 Z-1.70000
G1 Z2.00000
G0 X-21.39500 Y38.48500
G1 Z-1.70000
G1 Z2.00000
G0 X-21.39500 Y35.94500
G1 Z-1.70000
G1 Z2.00000
G0 X-21.39500 Y33.40500
G1 Z-1.70000
G1 Z2.00000
G0 X-35.77500 Y18.02500
G1 Z-1.70000
G1 Z2.00000
G0 X-35.77500 Y15.48500
G1 Z-1.70000
G1 Z2.00000
G0 X-30.02500 Y15.51000
G1 Z-1.70000
G1 Z2.00000
G0 X-30.02500 Y18.05000
G1 Z-1.70000
G1 Z2.00000
G0 X-22.02500 Y12.15500
G1 Z-1.70000
G1 Z2.00000
G0 X-18.77500 Y12.15500
G1 Z-1.70000
G1 Z2.00000
G0 X-22.02500 Y19.77500
G1 Z-1.70000
G1 Z2.00000
G0 X-18.77500 Y19.77500
G1 Z-1.70000
G1 Z2.00000
G0 X-21.64500 Y24.02500
G1 Z-1.70000
G1 Z2.00000
G0 X-19.10500 Y24.02500
G1 Z-1.70000
G1 Z2.00000
G0 X-16.56500 Y24.02500
G1 Z-1.70000
G1 Z2.00000
G0 X-14.02500 Y24.02500
G1 Z-1.70000
G1 Z2.00000
G0 X-15.77500 Y29.77500
G1 Z-1.70000
G1 Z2.00000
G0 X-13.27500 Y29.77500
G1 Z-1.70000
G1 Z2.00000
G0 X-13.77500 Y33.40500
G1 Z-1.70000
G1 Z2.00000
G0 X-13.77500 Y35.94500
G1 Z-1.70000
G1 Z2.00000
G0 X-13.77500 Y38.48500
G1 Z-1.70000
G1 Z2.00000
G0 X-10.02500 Y36.02500
G1 Z-1.70000
G1 Z2.00000
G0 X-6.02500 Y34.15500
G1 Z-1.70000
G1 Z2.00000
G0 X-6.02500 Y41.77500
G1 Z-1.70000
G1 Z2.00000
G0 X-10.02500 Y38.56500
G1 Z-1.70000
G1 Z2.00000
G0 X-13.77500 Y41.02500
G1 Z-1.70000
G1 Z2.00000
G0 X-21.39500 Y41.02500
G1 Z-1.70000
G1 Z2.00000
G0 X-26.02500 Y43.27500
G1 Z-1.70000
G1 Z2.00000
G0 X-31.77500 Y43.27500
G1 Z-1.70000
G1 Z2.00000
G0 X-34.31500 Y43.27500
G1 Z-1.70000
G1 Z2.00000
G0 X-41.02500 Y49.52500
G1 Z-1.70000
G1 Z2.00000
G0 X-44.77500 Y49.52500
G1 Z-1.70000
G1 Z2.00000
G0 X-48.77500 Y49.52500
G1 Z-1.70000
G1 Z2.00000
G0 X-52.77500 Y49.52500
G1 Z-1.70000
G1 Z2.00000
G0 X-64.27500 Y39.06500
G1 Z-1.70000
G1 Z2.00000
G0 X-74.52500 Y49.52500
G1 Z-1.70000
G1 Z2.00000
G0 X-78.52500 Y49.52500
G1 Z-1.70000
G1 Z2.00000
G0 X-82.27500 Y49.52500
G1 Z-1.70000
G1 Z2.00000
G0 X-86.27500 Y49.52500
G1 Z-1.70000
G1 Z2.00000
G0 X-86.27500 Y41.90500
G1 Z-1.70000
G1 Z2.00000
G0 X-82.27500 Y41.90500
G1 Z-1.70000
G1 Z2.00000
G0 X-78.52500 Y41.90500
G1 Z-1.70000
G1 Z2.00000
G0 X-74.52500 Y41.90500
G1 Z-1.70000
G1 Z2.00000
G0 X-76.11500 Y36.52500
G1 Z-1.70000
G1 Z2.00000
G0 X-78.65500 Y36.52500
G1 Z-1.70000
G1 Z2.00000
G0 X-81.19500 Y36.52500
G1 Z-1.70000
G1 Z2.00000
G0 X-83.73500 Y36.52500
G1 Z-1.70000
G1 Z2.00000
G0 X-86.27500 Y36.52500
G1 Z-1.70000
G1 Z2.00000
G0 X-91.52500 Y39.06500
G1 Z-1.70000
G1 Z2.00000
G0 X-91.52500 Y36.52500
G1 Z-1.70000
G1 Z2.00000
G0 X-96.77500 Y39.06500
G1 Z-1.70000
G1 Z2.00000
G0 X-96.77500 Y36.52500
G1 Z-1.70000
G1 Z2.00000

G00 Z5.000 ( All done -- retract )
(Block-name: block)
(Block-expand: 0)
(Block-enable: 1)

M5      (Spindle off.)
G04 P1.000000
M9      (Coolant off.)
M2      (Program end.)

