( pcb2gcode 2.4.0 )
( Software-independent Gcode )

G94 ( Millimeters per minute feed rate. )
G21 ( Units == Millimeters. )

G90 ( Absolute coordinates. )
G00 S12000 ( RPM spindle speed. )
G64 P0.01016 ( set maximum deviation from commanded toolpath )
G01 F200.00000 ( Feedrate. )


G00 Z5.00000 (Retract to tool change height)
T0
M5      (Spindle stop.)
G04 P1.00000 (Wait for spindle to stop)
(MSG, Change tool bit to cutter diameter 1.00000mm)
M6      (Tool change.)
M0      (Temporary machine stop.)
M3 ( Spindle on clockwise. )
G04 P1.00000 (Wait for spindle to get up to speed)
G04 P0 ( dwell for no time -- G64 should not smooth over this point )
G00 Z2.00000 ( retract )

G00 X-0.52497 Y1.02501 ( rapid move to begin. )
G01 Z-0.40000 F100.00000 ( plunge. )
G04 P0 ( dwell for no time -- G64 should not smooth over this point )
G01 F200.00000
G01 X-0.52497 Y54.77501
G01 X-0.53460 Y54.87257
G01 X-0.56305 Y54.96638
G01 X-0.60925 Y55.05284
G01 X-0.67143 Y55.12858
G01 X-0.74720 Y55.19076
G01 X-0.83363 Y55.23696
G01 X-0.92743 Y55.26541
G01 X-1.02500 Y55.27504
G01 X-101.02500 Y55.27504
G01 X-101.12254 Y55.26541
G01 X-101.21634 Y55.23696
G01 X-101.30277 Y55.19076
G01 X-101.37854 Y55.12858
G01 X-101.44072 Y55.05284
G01 X-101.48692 Y54.96638
G01 X-101.51537 Y54.87257
G01 X-101.52500 Y54.77501
G01 X-101.52500 Y1.02501
G01 X-101.51537 Y0.92747
G01 X-101.48692 Y0.83369
G01 X-101.44072 Y0.74723
G01 X-101.37854 Y0.67149
G01 X-101.30277 Y0.60928
G01 X-101.21634 Y0.56308
G01 X-101.12254 Y0.53463
G01 X-101.02500 Y0.52501
G01 X-1.02500 Y0.52501
G01 X-0.92743 Y0.53463
G01 X-0.83363 Y0.56308
G01 X-0.74720 Y0.60928
G01 X-0.67143 Y0.67149
G01 X-0.60925 Y0.74723
G01 X-0.56305 Y0.83369
G01 X-0.53460 Y0.92747
G01 X-0.52497 Y1.02501
G01 Z-0.80000 F100.00000 ( plunge. )
G04 P0 ( dwell for no time -- G64 should not smooth over this point )
G01 F200.00000
G01 X-0.52497 Y54.77501
G01 X-0.53460 Y54.87257
G01 X-0.56305 Y54.96638
G01 X-0.60925 Y55.05284
G01 X-0.67143 Y55.12858
G01 X-0.74720 Y55.19076
G01 X-0.83363 Y55.23696
G01 X-0.92743 Y55.26541
G01 X-1.02500 Y55.27504
G01 X-101.02500 Y55.27504
G01 X-101.12254 Y55.26541
G01 X-101.21634 Y55.23696
G01 X-101.30277 Y55.19076
G01 X-101.37854 Y55.12858
G01 X-101.44072 Y55.05284
G01 X-101.48692 Y54.96638
G01 X-101.51537 Y54.87257
G01 X-101.52500 Y54.77501
G01 X-101.52500 Y1.02501
G01 X-101.51537 Y0.92747
G01 X-101.48692 Y0.83369
G01 X-101.44072 Y0.74723
G01 X-101.37854 Y0.67149
G01 X-101.30277 Y0.60928
G01 X-101.21634 Y0.56308
G01 X-101.12254 Y0.53463
G01 X-101.02500 Y0.52501
G01 X-1.02500 Y0.52501
G01 X-0.92743 Y0.53463
G01 X-0.83363 Y0.56308
G01 X-0.74720 Y0.60928
G01 X-0.67143 Y0.67149
G01 X-0.60925 Y0.74723
G01 X-0.56305 Y0.83369
G01 X-0.53460 Y0.92747
G01 X-0.52497 Y1.02501
G01 Z-1.20000 F100.00000 ( plunge. )
G04 P0 ( dwell for no time -- G64 should not smooth over this point )
G01 F200.00000
G01 X-0.52497 Y54.77501
G01 X-0.53460 Y54.87257
G01 X-0.56305 Y54.96638
G01 X-0.60925 Y55.05284
G01 X-0.67143 Y55.12858
G01 X-0.74720 Y55.19076
G01 X-0.83363 Y55.23696
G01 X-0.92743 Y55.26541
G01 X-1.02500 Y55.27504
G01 X-101.02500 Y55.27504
G01 X-101.12254 Y55.26541
G01 X-101.21634 Y55.23696
G01 X-101.30277 Y55.19076
G01 X-101.37854 Y55.12858
G01 X-101.44072 Y55.05284
G01 X-101.48692 Y54.96638
G01 X-101.51537 Y54.87257
G01 X-101.52500 Y54.77501
G01 X-101.52500 Y1.02501
G01 X-101.51537 Y0.92747
G01 X-101.48692 Y0.83369
G01 X-101.44072 Y0.74723
G01 X-101.37854 Y0.67149
G01 X-101.30277 Y0.60928
G01 X-101.21634 Y0.56308
G01 X-101.12254 Y0.53463
G01 X-101.02500 Y0.52501
G01 X-1.02500 Y0.52501
G01 X-0.92743 Y0.53463
G01 X-0.83363 Y0.56308
G01 X-0.74720 Y0.60928
G01 X-0.67143 Y0.67149
G01 X-0.60925 Y0.74723
G01 X-0.56305 Y0.83369
G01 X-0.53460 Y0.92747
G01 X-0.52497 Y1.02501
G01 Z-1.60000 F100.00000 ( plunge. )
G04 P0 ( dwell for no time -- G64 should not smooth over this point )
G01 F200.00000
G01 X-0.52497 Y54.77501
G01 X-0.53460 Y54.87257
G01 X-0.56305 Y54.96638
G01 X-0.60925 Y55.05284
G01 X-0.67143 Y55.12858
G01 X-0.74720 Y55.19076
G01 X-0.83363 Y55.23696
G01 X-0.92743 Y55.26541
G01 X-1.02500 Y55.27504
G01 X-101.02500 Y55.27504
G01 X-101.12254 Y55.26541
G01 X-101.21634 Y55.23696
G01 X-101.30277 Y55.19076
G01 X-101.37854 Y55.12858
G01 X-101.44072 Y55.05284
G01 X-101.48692 Y54.96638
G01 X-101.51537 Y54.87257
G01 X-101.52500 Y54.77501
G01 X-101.52500 Y1.02501
G01 X-101.51537 Y0.92747
G01 X-101.48692 Y0.83369
G01 X-101.44072 Y0.74723
G01 X-101.37854 Y0.67149
G01 X-101.30277 Y0.60928
G01 X-101.21634 Y0.56308
G01 X-101.12254 Y0.53463
G01 X-101.02500 Y0.52501
G01 X-1.02500 Y0.52501
G01 X-0.92743 Y0.53463
G01 X-0.83363 Y0.56308
G01 X-0.74720 Y0.60928
G01 X-0.67143 Y0.67149
G01 X-0.60925 Y0.74723
G01 X-0.56305 Y0.83369
G01 X-0.53460 Y0.92747
G01 X-0.52497 Y1.02501

G04 P0 ( dwell for no time -- G64 should not smooth over this point )
G00 Z5.000000 ( retract )

M5 ( Spindle off. )
G04 P1.000000
M9 ( Coolant off. )
M2 ( Program end. )

